STARLINK-31087          
1 58597U 23200J   26067.67929479  .00001444  00000+0  63485-4 0  9997
2 58597  42.9986 173.9308 0000913 268.8991  91.1755 15.26741848123359
FLOCK 4G-11             
1 62629U 25009W   26068.45629261  .00012672  00000+0  47740-3 0  9990
2 62629  97.3964 150.6183 0001611 333.5407  26.5750 15.27220677 63680
